STARLINK-32401          
1 61865U 24202W   25362.15747329  .00003882  00000+0  15045-3 0  9990
2 61865  42.9988 282.3158 0000984 270.6844  89.3895 15.27589205 64397
STARLINK-32588          
1 61866U 24202X   25362.15105062  .00004149  00000+0  16018-3 0  9991
2 61866  43.0005 282.2665 0001660 264.0924  95.9738 15.27582513 64394
STARLINK-32569          
1 61867U 24202Y   25362.16132954  .00000567  00000+0  30100-4 0  9992
2 61867  43.0038 282.3444 0000526 275.6428  84.4363 15.27579623 64399
STARLINK-11402 [DTC]    
1 61874U 24204A   25362.27595483  .00001129  00000+0  14176-4 0  9994
2 61874  53.1591 348.6712 0001064  94.8744 265.2395 15.69705313 66284
STARLINK-11316 [DTC]    
1 61875U 24204B   25362.21708382  .00000074  00000+0  54735-5 0  9997
2 61875  53.1593 348.2639 0001134  87.7115 272.4033 15.69711168 65690
STARLINK-11401 [DTC]    
1 61876U 24204C   25362.25970711  .00036187  00000+0  23699-3 0  9996
2 61876  53.1556 347.8015 0001592 104.9525 255.1672 15.75455198 65702
STARLINK-11321 [DTC]    
1 61877U 24204D   25362.20243644  .00006654  00000+0  59614-4 0  9993
2 61877  53.1593 348.8992 0001378  92.5906 267.5270 15.69760994 65679
STARLINK-11314 [DTC]    
1 61878U 24204E   25362.26123600 -.00000106  00000+0  39855-5 0  9992
2 61878  53.1593 348.5515 0001185  92.3310 267.7843 15.69705121 65692
STARLINK-11324 [DTC]    
1 61879U 24204F   25362.25633026 -.00000582  00000+0  55294-7 0  9995
2 61879  53.1595 348.5184 0001185  87.9168 272.1985 15.69708131 65699
STARLINK-11328 [DTC]    
1 61880U 24204G   25362.18775469 -.00001512  00000+0 -76216-5 0  9997
2 61880  53.1586 348.8012 0001124  73.0958 287.0183 15.69710621 65681
STARLINK-11329 [DTC]    
1 61881U 24204H   25362.24651489  .00000177  00000+0  63210-5 0  9994
2 61881  53.1601 348.4558 0001235  90.6713 269.4446 15.69712470 65699
STARLINK-11398 [DTC]    
1 61882U 24204J   25362.24160801  .00001437  00000+0  16722-4 0  9993
2 61882  53.1605 348.4217 0001426  81.6764 278.4415 15.69710874 65696
STARLINK-11383 [DTC]    
1 61883U 24204K   25362.23183884 -.00006639  00000+0 -50079-4 0  9993
2 61883  53.1589 348.3548 0001465  81.9030 278.2154 15.69663591 65697
STARLINK-11359 [DTC]    
1 61884U 24204L   25362.23671729 -.00002482  00000+0 -15645-4 0  9996
2 61884  53.1588 348.3884 0001291  91.9769 268.1397 15.69693350 65690
STARLINK-11301 [DTC]    
1 61885U 24204M   25362.22689448 -.00000980  00000+0 -32314-5 0  9997
2 61885  53.1593 348.3228 0001227  81.5899 278.5258 15.69714465 65699
STARLINK-11351 [DTC]    
1 61886U 24204N   25362.22199122  .00000135  00000+0  59779-5 0  9997
2 61886  53.1604 348.2890 0001228  91.4444 268.6715 15.69703585 65693
