[{"OBJECT_NAME":"STARLINK-32401","OBJECT_ID":"2024-202W","EPOCH":"2025-12-28T03:46:45.692256","MEAN_MOTION":15.27589205,"ECCENTRICITY":9.842e-5,"INCLINATION":42.9988,"RA_OF_ASC_NODE":282.3158,"ARG_OF_PERICENTER":270.6844,"MEAN_ANOMALY":89.3895,"EPHEMERIS_TYPE":0,"CLASSIFICATION_TYPE":"U","NORAD_CAT_ID":61865,"ELEMENT_SET_NO":999,"REV_AT_EPOCH":6439,"BSTAR":0.00015045487,"MEAN_MOTION_DOT":3.882e-5,"MEAN_MOTION_DDOT":0},{"OBJECT_NAME":"STARLINK-32588","OBJECT_ID":"2024-202X","EPOCH":"2025-12-28T03:37:30.773568","MEAN_MOTION":15.27582513,"ECCENTRICITY":0.00016601,"INCLINATION":43.0005,"RA_OF_ASC_NODE":282.2665,"ARG_OF_PERICENTER":264.0924,"MEAN_ANOMALY":95.9738,"EPHEMERIS_TYPE":0,"CLASSIFICATION_TYPE":"U","NORAD_CAT_ID":61866,"ELEMENT_SET_NO":999,"REV_AT_EPOCH":6439,"BSTAR":0.00016018318,"MEAN_MOTION_DOT":4.149e-5,"MEAN_MOTION_DDOT":0},{"OBJECT_NAME":"STARLINK-32569","OBJECT_ID":"2024-202Y","EPOCH":"2025-12-28T03:52:18.872256","MEAN_MOTION":15.27579623,"ECCENTRICITY":5.267e-5,"INCLINATION":43.0038,"RA_OF_ASC_NODE":282.3444,"ARG_OF_PERICENTER":275.6428,"MEAN_ANOMALY":84.4363,"EPHEMERIS_TYPE":0,"CLASSIFICATION_TYPE":"U","NORAD_CAT_ID":61867,"ELEMENT_SET_NO":999,"REV_AT_EPOCH":6439,"BSTAR":3.01003e-5,"MEAN_MOTION_DOT":5.67e-6,"MEAN_MOTION_DDOT":0},{"OBJECT_NAME":"STARLINK-11402 [DTC]","OBJECT_ID":"2024-204A","EPOCH":"2025-12-28T06:37:22.497312","MEAN_MOTION":15.69705313,"ECCENTRICITY":0.00010646,"INCLINATION":53.1591,"RA_OF_ASC_NODE":348.6712,"ARG_OF_PERICENTER":94.8744,"MEAN_ANOMALY":265.2395,"EPHEMERIS_TYPE":0,"CLASSIFICATION_TYPE":"U","NORAD_CAT_ID":61874,"ELEMENT_SET_NO":999,"REV_AT_EPOCH":6628,"BSTAR":1.4176396e-5,"MEAN_MOTION_DOT":1.129e-5,"MEAN_MOTION_DDOT":0},{"OBJECT_NAME":"STARLINK-11316 [DTC]","OBJECT_ID":"2024-204B","EPOCH":"2025-12-28T05:12:36.042048","MEAN_MOTION":15.69711168,"ECCENTRICITY":0.00011347,"INCLINATION":53.1593,"RA_OF_ASC_NODE":348.2639,"ARG_OF_PERICENTER":87.7115,"MEAN_ANOMALY":272.4033,"EPHEMERIS_TYPE":0,"CLASSIFICATION_TYPE":"U","NORAD_CAT_ID":61875,"ELEMENT_SET_NO":999,"REV_AT_EPOCH":6569,"BSTAR":5.473525e-6,"MEAN_MOTION_DOT":7.4e-7,"MEAN_MOTION_DDOT":0},{"OBJECT_NAME":"STARLINK-11401 [DTC]","OBJECT_ID":"2024-204C","EPOCH":"2025-12-28T06:13:58.694304","MEAN_MOTION":15.75455198,"ECCENTRICITY":0.0001592,"INCLINATION":53.1556,"RA_OF_ASC_NODE":347.8015,"ARG_OF_PERICENTER":104.9525,"MEAN_ANOMALY":255.1672,"EPHEMERIS_TYPE":0,"CLASSIFICATION_TYPE":"U","NORAD_CAT_ID":61876,"ELEMENT_SET_NO":999,"REV_AT_EPOCH":6570,"BSTAR":0.00023698728,"MEAN_MOTION_DOT":0.00036187,"MEAN_MOTION_DDOT":0},{"OBJECT_NAME":"STARLINK-11321 [DTC]","OBJECT_ID":"2024-204D","EPOCH":"2025-12-28T04:51:30.508416","MEAN_MOTION":15.69760994,"ECCENTRICITY":0.00013781,"INCLINATION":53.1593,"RA_OF_ASC_NODE":348.8992,"ARG_OF_PERICENTER":92.5906,"MEAN_ANOMALY":267.527,"EPHEMERIS_TYPE":0,"CLASSIFICATION_TYPE":"U","NORAD_CAT_ID":61877,"ELEMENT_SET_NO":999,"REV_AT_EPOCH":6567,"BSTAR":5.9613753e-5,"MEAN_MOTION_DOT":6.654e-5,"MEAN_MOTION_DDOT":0},{"OBJECT_NAME":"STARLINK-11314 [DTC]","OBJECT_ID":"2024-204E","EPOCH":"2025-12-28T06:16:10.790400","MEAN_MOTION":15.69705121,"ECCENTRICITY":0.0001185,"INCLINATION":53.1593,"RA_OF_ASC_NODE":348.5515,"ARG_OF_PERICENTER":92.331,"MEAN_ANOMALY":267.7843,"EPHEMERIS_TYPE":0,"CLASSIFICATION_TYPE":"U","NORAD_CAT_ID":61878,"ELEMENT_SET_NO":999,"REV_AT_EPOCH":6569,"BSTAR":3.985493e-6,"MEAN_MOTION_DOT":-1.06e-6,"MEAN_MOTION_DDOT":0},{"OBJECT_NAME":"STARLINK-11324 [DTC]","OBJECT_ID":"2024-204F","EPOCH":"2025-12-28T06:09:06.934464","MEAN_MOTION":15.69708131,"ECCENTRICITY":0.00011858,"INCLINATION":53.1595,"RA_OF_ASC_NODE":348.5184,"ARG_OF_PERICENTER":87.9168,"MEAN_ANOMALY":272.1985,"EPHEMERIS_TYPE":0,"CLASSIFICATION_TYPE":"U","NORAD_CAT_ID":61879,"ELEMENT_SET_NO":999,"REV_AT_EPOCH":6569,"BSTAR":5.5294e-8,"MEAN_MOTION_DOT":-5.82e-6,"MEAN_MOTION_DDOT":0},{"OBJECT_NAME":"STARLINK-11328 [DTC]","OBJECT_ID":"2024-204G","EPOCH":"2025-12-28T04:30:22.005216","MEAN_MOTION":15.69710621,"ECCENTRICITY":0.00011246,"INCLINATION":53.1586,"RA_OF_ASC_NODE":348.8012,"ARG_OF_PERICENTER":73.0958,"MEAN_ANOMALY":287.0183,"EPHEMERIS_TYPE":0,"CLASSIFICATION_TYPE":"U","NORAD_CAT_ID":61880,"ELEMENT_SET_NO":999,"REV_AT_EPOCH":6568,"BSTAR":-7.621641e-6,"MEAN_MOTION_DOT":-1.512e-5,"MEAN_MOTION_DDOT":0},{"OBJECT_NAME":"STARLINK-11329 [DTC]","OBJECT_ID":"2024-204H","EPOCH":"2025-12-28T05:54:58.886496","MEAN_MOTION":15.6971247,"ECCENTRICITY":0.00012354,"INCLINATION":53.1601,"RA_OF_ASC_NODE":348.4558,"ARG_OF_PERICENTER":90.6713,"MEAN_ANOMALY":269.4446,"EPHEMERIS_TYPE":0,"CLASSIFICATION_TYPE":"U","NORAD_CAT_ID":61881,"ELEMENT_SET_NO":999,"REV_AT_EPOCH":6569,"BSTAR":6.320986e-6,"MEAN_MOTION_DOT":1.77e-6,"MEAN_MOTION_DDOT":0},{"OBJECT_NAME":"STARLINK-11398 [DTC]","OBJECT_ID":"2024-204J","EPOCH":"2025-12-28T05:47:54.932064","MEAN_MOTION":15.69710874,"ECCENTRICITY":0.00014264,"INCLINATION":53.1605,"RA_OF_ASC_NODE":348.4217,"ARG_OF_PERICENTER":81.6764,"MEAN_ANOMALY":278.4415,"EPHEMERIS_TYPE":0,"CLASSIFICATION_TYPE":"U","NORAD_CAT_ID":61882,"ELEMENT_SET_NO":999,"REV_AT_EPOCH":6569,"BSTAR":1.6722169e-5,"MEAN_MOTION_DOT":1.437e-5,"MEAN_MOTION_DDOT":0},{"OBJECT_NAME":"STARLINK-11383 [DTC]","OBJECT_ID":"2024-204K","EPOCH":"2025-12-28T05:33:50.875776","MEAN_MOTION":15.69663591,"ECCENTRICITY":0.00014657,"INCLINATION":53.1589,"RA_OF_ASC_NODE":348.3548,"ARG_OF_PERICENTER":81.903,"MEAN_ANOMALY":278.2154,"EPHEMERIS_TYPE":0,"CLASSIFICATION_TYPE":"U","NORAD_CAT_ID":61883,"ELEMENT_SET_NO":999,"REV_AT_EPOCH":6569,"BSTAR":-5.0079397e-5,"MEAN_MOTION_DOT":-6.639e-5,"MEAN_MOTION_DDOT":0},{"OBJECT_NAME":"STARLINK-11359 [DTC]","OBJECT_ID":"2024-204L","EPOCH":"2025-12-28T05:40:52.373856","MEAN_MOTION":15.6969335,"ECCENTRICITY":0.00012919,"INCLINATION":53.1588,"RA_OF_ASC_NODE":348.3884,"ARG_OF_PERICENTER":91.9769,"MEAN_ANOMALY":268.1397,"EPHEMERIS_TYPE":0,"CLASSIFICATION_TYPE":"U","NORAD_CAT_ID":61884,"ELEMENT_SET_NO":999,"REV_AT_EPOCH":6569,"BSTAR":-1.5644951e-5,"MEAN_MOTION_DOT":-2.482e-5,"MEAN_MOTION_DDOT":0},{"OBJECT_NAME":"STARLINK-11301 [DTC]","OBJECT_ID":"2024-204M","EPOCH":"2025-12-28T05:26:43.683072","MEAN_MOTION":15.69714465,"ECCENTRICITY":0.0001227,"INCLINATION":53.1593,"RA_OF_ASC_NODE":348.3228,"ARG_OF_PERICENTER":81.5899,"MEAN_ANOMALY":278.5258,"EPHEMERIS_TYPE":0,"CLASSIFICATION_TYPE":"U","NORAD_CAT_ID":61885,"ELEMENT_SET_NO":999,"REV_AT_EPOCH":6569,"BSTAR":-3.231381e-6,"MEAN_MOTION_DOT":-9.8e-6,"MEAN_MOTION_DDOT":0},{"OBJECT_NAME":"STARLINK-11351 [DTC]","OBJECT_ID":"2024-204N","EPOCH":"2025-12-28T05:19:40.041408","MEAN_MOTION":15.69703585,"ECCENTRICITY":0.00012286,"INCLINATION":53.1604,"RA_OF_ASC_NODE":348.289,"ARG_OF_PERICENTER":91.4444,"MEAN_ANOMALY":268.6715,"EPHEMERIS_TYPE":0,"CLASSIFICATION_TYPE":"U","NORAD_CAT_ID":61886,"ELEMENT_SET_NO":999,"REV_AT_EPOCH":6569,"BSTAR":5.977884e-6,"MEAN_MOTION_DOT":1.35e-6,"MEAN_MOTION_DDOT":0}]
